{"type": "FeatureCollection", "name": "afr_rivers", "note": "HydroRIVERS (gaz.rivers) in the Africa bbox, upland_skm >= 100,000 km^2, dissolved by main_riv, simplified 0.03 deg. Built by scripts/edop/workbench/build_afr_rivers.py.", "features": [{"type": "Feature", "geometry": {"type": "LineString", "coordinates": [[51.9771, 20.5521], [52.1937, 20.6396], [52.1979, 20.5687], [52.2312, 20.5937], [52.2771, 20.5312], [52.3771, 20.5396], [52.7187, 20.8937], [52.6562, 21.1187], [52.8479, 21.1312], [53.0146, 21.3562], [52.9771, 21.4021]]}, "properties": {"ord_clas": 1}}, {"type": "Feature", "geometry": {"type": "MultiLineString", "coordinates": [[[21.8896, 28.9354], [21.7271, 29.3479], [21.5812, 29.4312], [21.5312, 29.4146], [21.5937, 29.5937], [21.5229, 29.6271], [21.5396, 29.6646], [21.3854, 29.8521], [21.0812, 29.9854], [20.9562, 29.9729], [20.8521, 30.0479], [20.8479, 30.1312]], [[21.8479, 28.8604], [21.8896, 28.9354]], [[22.4229, 27.7771], [22.4396, 27.9312], [22.3812, 27.9729], [22.3854, 28.1354], [22.3396, 28.1562], [22.3312, 28.3479], [22.2271, 28.6521], [22.0604, 28.8729], [21.9229, 28.8771], [21.8896, 28.9354]]]}, "properties": {"ord_clas": 1}}, {"type": "Feature", "geometry": {"type": "LineString", "coordinates": [[23.3604, 24.2104], [23.5146, 24.2229], [23.5312, 24.3187], [23.8187, 24.4729], [24.0687, 24.7479], [24.1604, 25.1229], [24.0437, 25.6771], [24.2312, 26.1354], [24.2854, 26.4187], [24.2687, 26.6562], [24.1104, 27.1062], [24.0937, 27.3979], [23.8604, 27.7229], [23.8146, 27.9229], [23.6521, 28.0229], [23.5229, 28.3021], [23.5062, 28.5562], [23.5896, 28.7979], [23.5479, 29.1354], [23.6146, 29.1896], [23.6604, 29.4646], [23.5854, 29.6521]]}, "properties": {"ord_clas": 1}}, {"type": "Feature", "geometry": {"type": "LineString", "coordinates": [[30.3062, 23.3312], [30.4312, 23.5062], [30.4854, 23.5104]]}, "properties": {"ord_clas": 1}}, {"type": "Feature", "geometry": {"type": "LineString", "coordinates": [[11.3687, 20.3146], [11.3646, 20.2354], [11.4729, 20.0521], [11.4354, 20.0021], [11.4854, 19.8771], [11.1604, 19.5729], [11.5229, 18.9979], [11.7187, 18.8937], [11.7354, 18.7521]]}, "properties": {"ord_clas": 1}}, {"type": "Feature", "geometry": {"type": "LineString", "coordinates": [[26.7854, 17.3604], [27.1437, 17.4312], [27.3062, 17.5479], [27.3771, 17.4979]]}, "properties": {"ord_clas": 1}}, {"type": "Feature", "geometry": {"type": "LineString", "coordinates": [[51.3104, 21.4604], [51.3854, 21.5646], [51.3562, 21.6021], [51.5271, 21.6979], [51.9062, 22.2646], [51.9562, 22.5646], [52.0146, 22.5854], [51.9604, 22.7479]]}, "properties": {"ord_clas": 1}}, {"type": "Feature", "geometry": {"type": "MultiLineString", "coordinates": [[[27.5812, 10.7812], [27.5854, 10.4562], [27.4687, 10.3021], [27.5646, 10.1396], [27.7729, 10.0896], [27.9354, 9.9104], [28.2271, 9.8521], [28.4271, 9.6979], [28.4646, 9.5146]], [[27.6021, 9.8229], [28.0354, 9.7396], [28.3271, 9.5146], [28.4646, 9.5146]], [[28.4646, 9.5146], [28.5854, 9.5021], [28.8521, 9.3187], [29.0937, 9.2687], [29.1104, 9.2146], [29.2729, 9.1896], [29.4437, 9.0854]], [[29.3687, 8.7646], [29.3437, 8.9687], [29.4437, 9.0854]], [[29.4437, 9.0854], [29.5312, 9.0479], [29.5687, 9.1271], [29.9687, 9.3896], [30.2729, 9.4187], [30.3771, 9.5021], [30.5104, 9.5187]], [[33.9729, 17.6771], [33.9896, 17.9729], [33.9312, 18.2562], [33.8187, 18.3021], [33.7354, 18.4729], [33.6729, 18.4979], [33.6896, 18.6937], [33.5604, 18.7396], [33.5437, 18.8396], [33.5896, 19.1062], [33.4146, 19.2729], [33.3312, 19.5271], [33.0354, 19.5271], [32.9854, 19.4562], [32.8854, 19.4604], [32.7437, 19.3271], [32.6604, 19.1604], [32.5646, 19.1562], [32.4396, 19.0187], [32.3854, 18.8979], [32.2687, 18.9229], [32.0354, 18.8062], [32.0396, 18.6187], [31.8646, 18.5604], [31.7729, 18.3604], [31.5229, 18.0854], [31.3937, 18.0271], [31.3062, 18.0479], [31.2062, 17.9812], [30.9771, 18.0354], [30.9271, 18.1146], [30.7604, 18.1604], [30.6937, 18.3312], [30.7021, 18.4771], [30.5729, 18.5979], [30.4687, 18.8854], [30.4937, 19.1729], [30.3896, 19.5896], [30.4062, 19.6812], [30.3146, 19.7812], [30.2979, 19.9354], [30.5521, 19.9521], [30.5937, 20.0312], [30.5521, 20.1687], [30.5812, 20.2937], [30.5021, 20.3562], [30.3896, 20.3437], [30.3187, 20.4687], [30.2937, 20.6062], [30.3562, 20.7062], [30.3187, 20.7812], [30.5437, 20.8437], [30.5854, 21.0187], [30.6979, 21.0812], [30.6812, 21.2146], [30.9896, 21.4062], [30.9687, 21.5021], [31.1771, 21.6729], [31.2062, 21.8021], [31.4437, 22.1729], [31.8187, 22.4562], [31.9437, 22.6312], [32.0771, 22.7229], [32.1896, 22.7396], [32.2854, 22.6312], [32.3771, 22.6229], [32.5562, 22.7646], [32.5771, 22.8812], [32.7271, 23.1062], [32.9021, 23.2687], [32.9271, 23.3562], [32.8729, 23.6021], [32.9062, 23.8229], [32.8646, 24.0646], [32.9187, 24.4562], [32.8729, 24.5021], [32.9312, 24.6979], [32.8687, 24.8896], [32.8771, 25.0354], [32.5687, 25.2729], [32.5604, 25.4146], [32.4687, 25.5646], [32.7687, 25.8021], [32.7271, 25.8771], [32.7854, 25.9812], [32.7646, 26.1062], [32.6271, 26.1771], [32.5812, 26.1229], [32.4312, 26.1146], [32.2687, 26.0229], [32.1187, 26.2062], [32.0271, 26.1729], [32.0021, 26.2812], [31.8104, 26.4437], [31.8104, 26.5479], [31.7062, 26.5479], [31.7146, 26.6146], [31.3187, 27.0562], [31.3104, 27.1437], [31.1271, 27.2062], [31.1104, 27.2687], [31.0271, 27.2771], [30.8479, 27.4604], [30.8937, 27.7896], [30.8312, 27.8187], [30.8687, 27.9687], [30.7521, 28.1146], [30.7396, 28.3104], [30.8479, 28.4562], [30.8187, 28.5229], [30.9271, 28.8771], [30.9979, 28.9146], [31.2271, 29.2479], [31.2104, 29.4396], [31.2812, 29.5437], [31.2937, 29.8604], [31.2187, 30.1146], [31.0687, 30.2187], [30.9937, 30.2062], [30.9146, 30.3354], [30.8229, 30.3354], [30.8771, 30.3812], [30.8354, 30.4104], [30.8521, 30.5396], [30.7646, 30.7146], [30.7979, 30.7479], [30.7562, 30.7771], [30.8104, 30.8187], [30.7646, 30.8229], [30.7854, 30.9312], [30.7229, 31.0687], [30.5187, 31.2062], [30.5229, 31.3229], [30.3854, 31.4437]], [[30.5104, 9.5187], [30.8271, 9.4562], [30.9521, 9.4812], [31.4354, 9.3354], [31.5687, 9.3896]], [[32.9062, -0.6813], [33.2021, -0.0438], [33.1937, 0.2854], [33.2937, 0.3604], [33.1937, 0.4187], [33.0562, 0.6062], [33.0479, 0.7771], [32.9396, 1.0229], [32.9687, 1.1937], [32.7771, 1.4687], [32.6104, 1.4687], [32.2854, 1.6687], [32.0937, 1.6521], [32.1104, 1.7396], [32.3437, 1.8562], [32.3521, 2.0771], [32.2729, 2.2479], [32.1521, 2.2229], [31.9229, 2.3646], [31.8271, 2.3687], [31.6479, 2.2604], [31.5521, 2.2854], [31.3646, 2.1854], [31.3312, 2.2062], [31.5271, 2.4771], [31.4104, 2.6146], [31.4521, 2.7146], [31.3604, 2.8354], [31.4021, 2.9854], [31.7062, 3.4979], [31.8229, 3.5521], [31.9271, 3.5104], [32.0396, 3.5896], [31.6271, 4.0437], [31.5021, 4.3396], [31.4979, 4.5854], [31.5896, 4.6854], [31.6021, 4.8187], [31.7812, 5.2396], [31.8104, 5.6146], [31.7729, 5.7854], [31.2229, 6.7812], [30.8687, 7.0187], [30.7229, 7.1854], [30.6812, 7.3562], [30.5812, 7.4521], [30.5854, 7.5354], [30.4979, 7.6562], [30.5479, 7.7646], [30.5187, 7.9104], [30.4396, 7.9812], [30.3979, 8.1062], [30.3271, 8.1354], [30.3354, 8.3854], [30.3771, 8.4562], [30.2771, 8.5521], [30.3229, 8.6354], [30.2437, 8.6979], [30.2104, 8.9437], [30.3937, 9.1812], [30.3312, 9.3271], [30.5104, 9.5187]], [[31.5687, 9.3896], [31.6729, 9.6062], [31.9646, 9.7521], [32.2812, 10.1062], [32.2562, 10.4062], [32.1437, 10.4354], [32.1229, 10.5271], [32.3646, 10.7979], [32.4396, 10.8146], [32.6646, 11.0187], [32.6396, 11.3021], [32.7854, 11.7104], [32.7396, 11.8771], [32.7354, 12.2604], [32.8146, 12.5187], [32.7604, 12.7687], [32.7646, 12.9021], [32.8229, 12.9937], [32.7729, 13.1146], [32.5854, 13.3187], [32.6312, 13.5729], [32.5312, 13.6312], [32.4854, 13.7646], [32.3562, 13.8729], [32.3271, 14.0479], [32.1646, 14.3687], [32.1979, 14.7104], [32.4271, 14.9562], [32.4979, 15.2812], [32.4521, 15.4812], [32.5062, 15.6437]], [[33.0479, 7.8021], [32.9979, 7.9437], [33.1271, 8.1104], [33.1937, 8.1312], [33.2229, 8.4229], [33.1521, 8.4479], [33.1729, 8.4896], [33.0979, 8.5896], [32.9979, 8.6021], [32.9479, 8.5479], [32.9437, 8.5937], [32.8479, 8.6354], [32.7562, 8.5979], [32.7354, 8.6562], [32.6937, 8.6437], [32.7396, 8.7479], [32.6187, 8.8146], [32.5896, 8.8854], [32.5271, 8.8521], [32.5271, 8.9229], [32.4354, 8.9146], [32.3854, 9.0979], [32.2271, 9.0896], [32.1562, 9.2354], [32.1021, 9.2312], [32.0687, 9.2896], [31.8354, 9.3604], [31.8229, 9.3104], [31.7229, 9.2854], [31.5979, 9.3146], [31.5687, 9.3896]], [[32.5062, 15.6437], [32.6062, 16.2646], [32.6812, 16.2896], [32.7354, 16.3979], [32.9396, 16.5521], [33.1104, 16.5187], [33.2562, 16.6604], [33.6062, 16.7937], [33.7229, 16.9812], [33.6854, 17.1271], [33.7437, 17.2021], [33.7312, 17.2854], [33.8854, 17.4312], [33.8771, 17.5146], [33.9729, 17.6771]], [[36.5562, 10.3646], [36.5396, 10.4812], [36.4687, 10.4854], [36.2479, 10.1354], [35.9812, 10.1479], [35.8687, 10.0062], [35.7396, 10.0521], [35.7396, 9.9771], [35.6812, 9.9437], [35.5729, 10.0646], [35.3521, 10.1396], [35.3187, 10.4021], [35.1521, 10.5729], [35.2146, 10.8604], [35.2021, 11.1146], [35.0937, 11.2146], [34.7312, 11.2979], [34.6771, 11.3937], [34.5687, 11.4396], [34.4104, 11.6021], [34.3062, 12.1437], [34.3604, 12.2229], [34.3604, 12.3687], [34.1437, 12.5146], [34.1854, 12.5729], [34.1354, 12.6354], [34.1521, 12.7646], [34.0396, 12.8771], [33.9979, 12.8604], [33.9979, 13.0146], [33.9479, 13.0521], [33.9854, 13.1396], [33.9354, 13.1646], [33.9646, 13.2187], [33.8854, 13.3187], [33.7229, 13.3187], [33.6646, 13.4021], [33.6771, 13.5187], [33.5812, 13.5729], [33.6396, 13.6771], [33.5604, 13.7229], [33.6187, 13.7729], [33.5521, 13.8354], [33.6271, 13.8854], [33.5896, 13.9562], [33.6396, 13.9604], [33.6146, 14.0354], [33.6646, 14.0562], [33.6896, 14.1479], [33.5521, 14.3437], [33.5729, 14.4271], [33.5104, 14.4229], [33.3687, 14.7312], [33.3104, 14.7312], [33.2229, 14.9062], [33.2479, 14.9979], [33.1854, 15.0521], [33.1979, 15.1021], [33.0271, 15.2687], [32.9521, 15.2604], [32.7937, 15.3437], [32.5896, 15.6062], [32.5062, 15.6437]], [[35.9104, 14.7229], [35.9104, 14.9646], [35.9687, 14.9604], [35.9979, 15.0229], [35.7729, 15.3021], [35.7854, 15.3771], [35.6312, 15.6021], [35.5771, 15.8437], [35.5937, 15.9937], [35.4979, 16.0812], [35.4562, 16.2479], [35.3604, 16.2687], [35.2604, 16.4062], [35.2646, 16.5437], [34.9437, 16.9396], [34.9521, 17.0354], [34.7521, 17.1146], [34.6146, 17.2521], [34.5062, 17.2646], [34.2104, 17.4312], [34.2062, 17.5604], [33.9729, 17.6771]]]}, "properties": {"ord_clas": 1}}, {"type": "Feature", "geometry": {"type": "LineString", "coordinates": [[18.0562, 15.4937], [18.3979, 15.8437], [18.4979, 16.1146], [18.2437, 16.3437], [18.1771, 16.7896], [18.0104, 16.9687], [17.8812, 16.9729]]}, "properties": {"ord_clas": 1}}, {"type": "Feature", "geometry": {"type": "MultiLineString", "coordinates": [[[-11.3938, 14.4271], [-11.5646, 14.4854], [-11.6813, 14.5854], [-11.8938, 14.6146], [-12.1354, 14.7771], [-12.2729, 14.7687], [-12.4063, 14.8479], [-12.4979, 15.0187], [-12.7188, 15.1021], [-12.8021, 15.2146], [-12.8438, 15.1979], [-12.8979, 15.2521], [-12.8354, 15.2937], [-12.9479, 15.3646], [-12.9271, 15.4396], [-12.9688, 15.5021], [-13.0896, 15.4896], [-13.0938, 15.5854], [-13.2313, 15.6187], [-13.2521, 15.6729], [-13.2063, 15.6937], [-13.2938, 15.7729], [-13.2646, 15.7896], [-13.3854, 16.0604], [-13.4604, 16.1062], [-13.4979, 16.0812], [-13.4813, 16.1437], [-13.6813, 16.0937], [-13.7104, 16.1812], [-13.8479, 16.1104], [-13.8813, 16.1979], [-13.9729, 16.2271], [-13.9896, 16.3062], [-13.9563, 16.3146], [-14.2063, 16.5354], [-14.3271, 16.5687], [-14.3313, 16.6396], [-14.9354, 16.6312], [-14.9854, 16.6896], [-15.0271, 16.6312], [-15.0979, 16.6771], [-15.1188, 16.6396], [-15.0771, 16.6187], [-15.1229, 16.5771], [-15.4146, 16.5354], [-15.4729, 16.5896], [-15.5146, 16.5187], [-15.6229, 16.5271], [-15.7021, 16.4687], [-15.8687, 16.5146], [-16.0563, 16.4771], [-16.1104, 16.5562], [-16.2688, 16.5229], [-16.4771, 16.0646]], [[-11.1438, 14.5271], [-11.2146, 14.5104], [-11.2146, 14.4521], [-11.3313, 14.4312], [-11.3646, 14.4687], [-11.3729, 14.4396], [-11.3812, 14.4312], [-11.3854, 14.4312], [-11.3896, 14.4271], [-11.3938, 14.4271]], [[-10.1938, 13.6562], [-10.3813, 13.5979], [-10.7188, 13.7854], [-10.8938, 13.8271], [-10.9813, 13.7812], [-11.0563, 13.8479], [-11.0729, 13.9937], [-11.2479, 14.0687], [-11.2146, 14.1437], [-11.2521, 14.1646], [-11.2604, 14.3021], [-11.3938, 14.4271]]]}, "properties": {"ord_clas": 1}}, {"type": "Feature", "geometry": {"type": "MultiLineString", "coordinates": [[[18.0854, 9.4562], [17.6687, 9.8437], [17.5896, 10.0854], [17.4979, 10.2062], [17.3062, 10.3812], [17.1854, 10.3937], [17.0229, 10.5771], [16.9604, 10.5896], [16.7104, 10.4729], [16.5271, 10.5104], [16.1396, 10.7646], [15.7812, 10.7979], [15.5479, 10.9312], [15.4312, 11.0604], [15.4187, 11.3271], [15.2896, 11.5771], [15.3396, 11.7062], [15.3271, 11.8604], [15.2771, 11.9521], [15.1729, 11.9812], [15.1271, 12.0771], [15.0062, 12.1229], [14.9562, 12.0979], [14.8896, 12.1646], [14.9062, 12.4021], [14.8437, 12.4646], [14.8396, 12.6229], [14.5521, 12.7812], [14.5854, 12.9771], [14.5271, 13.0771]], [[19.8354, 10.7062], [19.6396, 10.3896], [19.6021, 10.1229], [19.4437, 9.9687], [19.3104, 10.0396], [19.2062, 10.0104], [19.0687, 9.8687], [18.8812, 9.8437], [18.8062, 9.7271], [18.5687, 9.7229], [18.3937, 9.6479], [18.2562, 9.5354], [18.1312, 9.4979], [18.1104, 9.4604], [18.0979, 9.4604], [18.0937, 9.4562], [18.0854, 9.4562]], [[20.5062, 9.2896], [20.4354, 9.1562], [20.3104, 9.1187], [20.0937, 9.1479], [19.6646, 9.0229], [19.0771, 9.0104], [18.8229, 8.8146], [18.5354, 8.9687], [18.3687, 9.2104], [18.0854, 9.4562]]]}, "properties": {"ord_clas": 1}}, {"type": "Feature", "geometry": {"type": "LineString", "coordinates": [[48.3229, 5.7771], [48.4187, 5.8479], [48.5021, 6.1021], [48.7354, 6.4021]]}, "properties": {"ord_clas": 1}}, {"type": "Feature", "geometry": {"type": "MultiLineString", "coordinates": [[[-2.9313, 10.7062], [-2.8979, 10.5146], [-2.7771, 10.4229], [-2.8479, 10.3271], [-2.7563, 10.2521], [-2.7938, 10.0896], [-2.7271, 9.8271], [-2.7854, 9.6979], [-2.7479, 9.6479], [-2.7688, 9.5687], [-2.6854, 9.4729], [-2.6729, 9.3687], [-2.7188, 9.3021], [-2.6563, 9.2562], [-2.7688, 9.1396], [-2.7771, 9.0562], [-2.6563, 9.0104], [-2.5979, 8.8312], [-2.6271, 8.7979], [-2.5104, 8.7312], [-2.3688, 8.5479], [-2.2854, 8.2979], [-2.1354, 8.1521], [-1.9646, 8.1646], [-1.8938, 8.2604], [-1.7813, 8.2271], [-1.7604, 8.3062], [-1.8646, 8.3312], [-1.9021, 8.3896], [-1.8729, 8.6354], [-1.5229, 8.6812], [-1.4729, 8.7646], [-1.3771, 8.7729], [-1.2104, 8.6687], [-1.0438, 8.7021], [-0.9813, 8.6521]], [[-1.3938, 9.5604], [-1.3479, 9.5104], [-1.3563, 9.3937], [-1.2438, 9.2646], [-1.2479, 9.1771], [-1.1229, 9.0937], [-1.1646, 8.9187], [-0.9813, 8.7687], [-0.9813, 8.6521]], [[-0.9813, 8.6521], [-0.5438, 8.1979], [-0.3021, 8.1312], [-0.1646, 8.0312], [-0.1438, 7.8604], [0.0229, 7.7562], [0.1187, 7.4312], [0.2187, 7.3396], [0.1687, 7.1271], [0.2062, 6.7312], [0.1312, 6.6229], [0.1146, 6.4062], [0.0604, 6.3021], [0.0812, 6.1604], [0.3521, 6.0479], [0.5062, 6.0604], [0.6396, 5.9187], [0.6521, 5.7937]]]}, "properties": {"ord_clas": 1}}, {"type": "Feature", "geometry": {"type": "MultiLineString", "coordinates": [[[-8.3229, 12.0229], [-8.3146, 12.1021], [-8.1479, 12.2479], [-8.0271, 12.6062], [-7.8646, 12.6729], [-7.7771, 12.6437], [-7.7479, 12.7271], [-7.4979, 12.9396], [-7.1146, 13.1729], [-6.9021, 13.3604], [-6.4396, 13.3521], [-6.1896, 13.4979], [-6.0604, 13.7146], [-5.8313, 13.6896], [-5.4813, 13.9646], [-5.2438, 13.9771], [-5.1104, 14.1271], [-4.5813, 14.2687], [-4.4938, 14.2271], [-4.3729, 14.3437], [-4.3604, 14.4229], [-4.2021, 14.5104]], [[-6.0521, 13.0937], [-5.9813, 13.1896], [-5.8896, 13.2187], [-5.7854, 13.1854], [-5.6563, 13.2312], [-5.4479, 13.2104], [-5.3729, 13.2812], [-5.2479, 13.2646], [-5.0479, 13.3687], [-4.8271, 13.4104], [-4.6604, 13.6229], [-4.5354, 13.6937], [-4.5063, 13.8896], [-4.2521, 13.9854], [-4.2521, 14.0687], [-4.1479, 14.2187], [-4.2604, 14.3312], [-4.1979, 14.4187], [-4.2021, 14.5104]], [[-4.2021, 14.5104], [-4.1646, 14.6729], [-4.0854, 14.7479], [-4.0896, 14.8271], [-3.9188, 14.9479], [-3.8979, 15.0271], [-3.9813, 15.1271], [-3.9896, 15.2562], [-4.2146, 15.3479], [-4.3438, 15.5521], [-4.3396, 15.6646], [-4.2271, 15.7521], [-4.1813, 15.8729], [-4.0354, 15.8479], [-3.7438, 16.1229], [-3.4896, 16.1437], [-3.3771, 16.2146], [-3.3771, 16.2729], [-3.3104, 16.2604], [-3.3146, 16.3479], [-3.1646, 16.4687], [-3.1104, 16.4646], [-3.1188, 16.5896], [-3.0646, 16.6521], [-2.8979, 16.6437], [-2.6604, 16.7396], [-2.5729, 16.7187], [-2.4771, 16.7771], [-2.2729, 16.7896], [-2.2396, 16.8437], [-2.0521, 16.8146], [-2.0271, 16.8687], [-1.7854, 16.9229], [-1.7354, 16.9854], [-1.3479, 16.9979], [-1.1271, 17.0687], [-1.0104, 16.9771], [-0.7771, 17.0021], [-0.6688, 16.9229], [-0.5438, 16.9729], [-0.3813, 16.9646], [-0.2271, 16.5896], [-0.1188, 16.5187], [-0.0396, 16.2021], [0.0771, 16.1146], [0.1229, 15.9937], [0.2812, 15.8146], [0.4646, 15.7229], [0.4937, 15.5396], [0.7354, 15.4271], [0.7604, 15.3646], [0.6604, 15.1562], [0.6604, 14.9896], [0.8562, 14.8937], [0.9104, 14.6604], [1.0854, 14.5187], [1.1437, 14.3979], [1.3062, 14.2562], [1.4437, 14.2146], [1.5521, 13.8979], [1.7104, 13.6979], [1.9937, 13.5812], [2.3646, 13.2646], [2.3812, 12.8771], [2.4937, 12.7312], [2.4729, 12.6729], [2.5354, 12.6312], [2.5021, 12.5729], [2.5521, 12.5021], [2.6146, 12.5771], [2.6771, 12.5021], [2.7104, 12.5687], [2.7396, 12.4604], [2.8354, 12.4104]], [[6.2396, 19.5812], [6.2104, 19.4604], [6.2604, 19.0271], [6.2104, 18.7937], [6.0312, 18.5104], [6.0687, 18.3771], [5.9854, 18.0854], [5.6937, 18.0437], [5.6437, 17.9937], [5.4771, 18.0479], [5.3187, 18.0187], [4.9229, 17.7521], [4.7229, 17.6937], [4.6062, 17.5479], [4.3604, 17.4312], [4.2146, 17.2562], [4.0937, 17.2062], [3.9062, 16.9562], [3.6021, 16.6687], [3.6104, 16.5937], [3.5646, 16.5937], [3.4146, 16.4187], [3.3521, 16.0854], [3.4187, 15.8687], [3.3146, 15.6104], [3.3937, 15.4937], [3.3854, 15.2104], [3.4729, 15.0104], [3.4687, 14.9021], [3.3271, 14.6604], [3.3562, 14.5687], [3.2937, 14.1146], [3.1937, 13.9396], [2.9646, 13.7479], [2.9229, 13.6354], [2.9771, 13.4354], [2.8604, 12.9854], [2.8896, 12.7646], [2.8354, 12.4104]], [[2.8354, 12.4104], [3.2687, 12.0146], [3.3146, 11.8896], [3.4854, 11.8604], [3.6187, 11.6604], [4.0646, 11.4646], [4.1229, 11.3812]], [[5.7271, 13.4729], [5.6354, 13.4562], [5.5437, 13.3312], [5.4104, 13.3104], [5.2771, 13.1437], [5.0812, 13.0062], [4.7521, 13.0604], [4.5812, 12.7854], [4.2729, 12.5271], [3.9937, 12.3771], [4.0021, 12.1479], [4.1062, 11.9312], [4.1396, 11.6604], [4.2521, 11.5187], [4.1229, 11.3812]], [[4.1229, 11.3812], [4.2646, 11.2062], [4.5271, 11.1229], [4.7312, 10.8729], [4.6937, 10.6521], [4.5937, 10.5104], [4.5771, 10.2562], [4.5229, 10.1437], [4.6354, 9.7812], [4.5562, 9.5604], [4.6104, 9.3437], [4.7479, 9.2604], [4.7812, 9.1437], [5.0104, 9.2104], [5.2354, 9.0229], [5.5271, 8.9396], [5.7937, 8.7437], [6.0979, 8.7646], [6.1562, 8.7187], [6.3146, 8.7271], [6.4562, 8.4479], [6.6104, 8.3187], [6.7771, 8.0521], [6.7521, 7.7771]], [[6.7521, 7.7771], [6.6979, 7.5771], [6.7187, 7.1229], [6.6187, 6.8062], [6.7687, 6.1562], [6.7062, 6.0729], [6.7354, 6.0187], [6.6146, 5.6312], [6.5354, 5.5354], [6.5437, 5.4437], [6.4854, 5.4104], [6.5062, 5.3396], [6.3354, 5.2312], [6.3021, 5.1771], [6.3646, 5.1604], [6.2979, 5.1354], [6.2937, 5.0771], [6.2312, 5.0771], [6.2937, 5.0187], [6.2521, 4.9979], [6.2812, 4.9646], [6.2229, 4.9104], [6.2021, 4.9396], [6.2062, 4.8687], [6.1562, 4.8812], [6.0687, 4.7729], [6.0979, 4.6646], [6.0312, 4.4896], [6.0687, 4.3937]], [[12.8021, 9.3854], [12.5229, 9.2312], [12.3521, 9.4479], [12.2104, 9.5271], [12.0521, 9.4771], [11.8771, 9.5229], [11.6854, 9.4896], [11.3854, 9.3229], [11.2604, 9.2021], [11.0562, 9.1271], [10.8437, 8.7562], [10.2896, 8.6896], [10.0854, 8.4646], [10.0312, 8.3396], [9.2937, 7.9521], [8.7104, 7.7437], [8.4687, 7.7479], [7.9312, 7.9896], [7.4146, 8.0562], [7.0562, 7.9479], [6.7521, 7.7771]]]}, "properties": {"ord_clas": 1}}, {"type": "Feature", "geometry": {"type": "LineString", "coordinates": [[11.2771, 4.4021], [11.2146, 4.2937], [10.9729, 4.1396], [10.7187, 4.0562], [10.6312, 4.0771], [10.5229, 4.0146], [10.4437, 4.0937], [10.3104, 3.8812], [10.2396, 3.8312], [10.1562, 3.8646], [9.9854, 3.6396], [9.7771, 3.6312], [9.6521, 3.5479]]}, "properties": {"ord_clas": 1}}, {"type": "Feature", "geometry": {"type": "LineString", "coordinates": [[36.0979, 3.5062], [36.1437, 3.3729]]}, "properties": {"ord_clas": 1}}, {"type": "Feature", "geometry": {"type": "MultiLineString", "coordinates": [[[41.8896, 0.7687], [42.0479, 0.7104], [42.0604, 0.5271], [42.1771, 0.3604], [42.2854, 0.3146], [42.3271, 0.0979], [42.4521, 0.0104], [42.5312, 0.0146], [42.5896, -0.0604]], [[42.0812, 4.1771], [42.2771, 4.1479], [42.3187, 4.0562], [42.3812, 4.0562], [42.4646, 3.9312], [42.5562, 3.8979], [42.5812, 3.8146], [42.5271, 3.8146], [42.5479, 3.7437], [42.4896, 3.6604], [42.5229, 3.6354], [42.4687, 3.5646], [42.5604, 3.4146], [42.4646, 3.3146], [42.5062, 3.2604], [42.4937, 3.1354], [42.5854, 3.0979], [42.5646, 2.9854], [42.3437, 2.7896], [42.3812, 2.6354], [42.2937, 2.5646], [42.3437, 2.4062], [42.2521, 2.2937], [42.1937, 2.3604], [42.1229, 2.2937], [42.2437, 2.2354], [42.2354, 2.2021], [42.1604, 2.2229], [42.1354, 2.1687], [42.3104, 2.0187], [42.2562, 1.9187], [42.4479, 1.6271], [42.4187, 1.5229], [42.4729, 1.4937], [42.4229, 1.4229], [42.5687, 1.2521], [42.5562, 1.1562], [42.6104, 1.1354], [42.5812, 1.0562], [42.6312, 0.9646], [42.5854, 0.9354], [42.5896, 0.8646], [42.6229, 0.8062], [42.6646, 0.8312], [42.6604, 0.7396], [42.7437, 0.6437], [42.7687, 0.5187], [42.7187, 0.4396], [42.7687, 0.3396], [42.7646, 0.1729]], [[42.7646, 0.1729], [42.7146, 0.1187], [42.7354, 0.0521], [42.5896, -0.0604]], [[42.5896, -0.0604], [42.6271, -0.2563]], [[42.7979, 6.1896], [43.2396, 5.9437], [43.5354, 5.9437], [43.6312, 5.8604], [43.7021, 5.8646], [43.7562, 5.7854], [43.8771, 5.7562], [43.9229, 5.6812], [44.2521, 5.5854], [44.3021, 5.4937], [44.5562, 5.3896], [44.7604, 5.2146], [44.7979, 5.1187], [44.9646, 5.0354], [45.0521, 4.8687], [45.1687, 4.8479], [45.2896, 4.4396], [45.3729, 4.3479], [45.4062, 4.2062], [45.5229, 4.1062], [45.5021, 3.9646], [45.6729, 3.6979], [45.6729, 3.5937], [45.5437, 3.2771], [45.4937, 2.5104], [45.3729, 2.3229], [45.2437, 2.2854], [45.1062, 2.1354], [44.9229, 2.1146], [44.8312, 1.9312], [44.6146, 1.7521], [44.4604, 1.7479], [44.3937, 1.6396], [44.2521, 1.6479], [44.1187, 1.5312], [43.9687, 1.4854], [43.8979, 1.3521], [43.7896, 1.2812], [43.8062, 1.2521], [43.7104, 1.2104], [43.6896, 1.1021], [43.4271, 1.0937], [43.2771, 0.9187], [43.2854, 0.7937], [43.0937, 0.7396], [43.0646, 0.6354], [42.9187, 0.5187], [42.8812, 0.3312], [42.8187, 0.3021], [42.8104, 0.2146], [42.7812, 0.1771], [42.7729, 0.1729], [42.7646, 0.1729]]]}, "properties": {"ord_clas": 1}}, {"type": "Feature", "geometry": {"type": "LineString", "coordinates": [[12.1687, -0.1521], [11.8771, -0.0646], [11.7229, -0.1021], [11.6312, -0.0604], [11.5812, -0.1104], [11.5312, -0.0729], [11.3187, -0.1188], [11.1812, -0.0604], [11.0854, -0.1229], [10.8479, -0.1063], [10.7604, -0.1979], [10.6521, -0.1729], [10.4729, -0.3229], [10.4562, -0.4271], [10.3062, -0.5146], [10.1771, -0.8396], [9.9271, -0.8063], [9.4937, -1.0021], [9.3854, -0.9979], [9.2937, -1.0729], [9.0854, -1.0771], [8.9187, -1.0063]]}, "properties": {"ord_clas": 1}}, {"type": "Feature", "geometry": {"type": "MultiLineString", "coordinates": [[[16.1854, -3.1896], [16.2229, -3.3063], [15.8979, -3.9438], [15.5562, -4.0396], [15.4896, -4.1396], [15.5104, -4.2896], [15.2062, -4.3188], [14.8312, -4.8271], [14.6646, -4.9188], [14.4812, -4.8438], [14.3896, -4.9104], [14.1771, -4.9313], [13.9812, -5.0521], [13.9646, -5.2146], [13.8854, -5.2313], [13.8479, -5.3271], [13.7771, -5.2688], [13.7187, -5.3313], [13.6354, -5.2813], [13.5437, -5.3729], [13.6604, -5.5313], [13.5604, -5.5479], [13.5896, -5.6979], [13.3604, -5.9063], [13.0229, -5.8646], [12.8437, -6.0188], [12.6062, -6.0146], [12.4646, -6.0688]], [[16.0604, 1.6521], [16.1687, 1.4437], [16.2937, 1.4187], [16.3896, 1.2687], [16.5354, 1.2104], [16.5021, 1.1562], [16.5521, 1.0896], [16.5271, 0.9687], [16.6229, 0.7437], [16.5979, 0.6771], [16.6396, 0.5479], [16.7812, 0.4687], [16.8854, 0.5146], [16.9021, 0.4604], [16.8521, 0.4062], [17.0187, 0.3729], [17.0271, 0.2521], [17.1396, 0.2271], [17.0854, -0.0229], [17.1479, -0.1729], [17.0979, -0.2521], [17.1437, -0.3229], [17.1062, -0.3604], [17.1979, -0.4771], [17.1437, -0.5021], [17.1521, -0.6729], [17.1979, -0.7229], [17.1146, -0.7688], [17.1146, -0.9396], [16.9604, -1.0063], [16.7729, -1.3521]], [[16.9354, -3.0313], [16.8729, -3.0354], [16.8396, -3.0938], [16.6604, -3.0479], [16.3979, -3.0688], [16.2312, -3.1229], [16.1854, -3.1896]], [[16.7729, -1.3521], [16.5604, -1.8063], [16.1896, -2.2063], [16.2354, -2.6396], [16.1729, -2.9146], [16.1854, -3.1896]], [[16.7146, -6.4688], [16.6771, -6.3354], [16.7187, -6.3313], [16.7312, -6.1646], [16.5979, -6.0563], [16.6062, -5.8604], [16.5646, -5.8271], [16.5729, -5.4271], [16.5062, -5.2063], [16.5437, -4.6938], [16.4854, -4.5104], [16.5354, -4.3521], [16.4812, -4.2271], [16.5646, -4.1438], [16.8312, -4.0688], [16.9146, -3.9646], [17.1187, -3.9938], [17.2687, -3.7021], [17.3229, -3.6771], [17.2729, -3.4896], [17.3562, -3.3813], [17.3854, -3.2229]], [[17.7104, -0.5771], [17.3479, -0.9813], [17.0396, -1.0854], [16.7729, -1.3521]], [[17.3854, -3.2229], [17.0146, -3.1063], [16.9354, -3.0313]], [[18.1521, -2.7313], [18.0354, -2.7938], [17.9437, -2.7604], [17.7312, -2.7938], [17.6979, -2.7396], [17.5979, -2.7438], [17.5604, -2.8104], [17.3312, -2.8854], [17.2521, -3.0021], [17.0854, -2.9813], [16.9354, -3.0313]], [[20.4146, -4.2896], [20.3312, -4.3771], [20.2437, -4.3813], [20.1271, -4.2896], [20.0354, -4.2854], [19.8604, -4.1354], [19.5604, -4.0438], [18.9187, -3.6771], [18.4062, -3.5688], [18.2437, -3.4188], [18.1396, -3.4521], [18.0312, -3.3771], [17.8312, -3.4271], [17.7146, -3.3229], [17.3854, -3.2229]], [[18.2312, 0.0437], [18.0687, -0.2188], [17.7104, -0.5771]], [[22.4271, 4.1312], [22.2562, 4.1146], [22.0937, 4.2187], [21.8604, 4.2437], [21.7312, 4.3062], [21.6479, 4.3146], [21.5562, 4.2521], [21.3604, 4.2854], [21.2854, 4.3437], [21.2229, 4.2937], [21.0729, 4.4021], [20.8896, 4.4437], [20.5812, 4.4146], [20.4646, 4.5229], [20.4562, 4.6271], [20.3479, 4.7562], [20.1521, 4.8979], [19.8979, 4.9937], [19.8229, 5.1062], [19.6896, 5.1437], [19.4187, 5.1312], [19.1937, 4.9396], [19.1104, 4.9396], [19.0062, 4.7562], [18.8312, 4.5812], [18.7812, 4.4187], [18.5437, 4.3146], [18.6479, 4.0604], [18.5812, 3.7896], [18.6437, 3.2229], [18.3312, 2.5979], [18.2229, 2.5146], [18.1812, 2.3312], [18.0937, 2.2687], [18.0687, 1.5229], [17.8396, 0.9562], [17.8729, 0.5812], [17.9396, 0.5146], [17.9604, 0.3979], [17.7854, 0.1687], [17.6729, -0.1688], [17.7104, -0.5771]], [[19.8979, -0.2854], [19.7437, -0.2396], [19.7271, -0.2813], [19.6312, -0.2646], [19.5771, -0.1938], [19.4687, -0.1938], [19.1812, -0.2479], [19.1604, -0.3104], [19.1104, -0.2854], [19.0396, -0.3521], [18.7562, -0.1021], [18.3771, -0.0396], [18.3687, 0.0396], [18.3062, 0.0771], [18.2312, 0.0437]], [[23.5646, 1.2229], [23.0021, 1.8812], [22.7687, 1.9479], [22.4104, 2.1771], [21.8062, 2.1729], [20.9521, 2.0021], [20.4896, 1.9979], [19.8937, 1.9104], [19.3396, 1.7354], [18.5896, 1.1562], [18.3937, 0.9187], [18.3646, 0.5771], [18.2312, 0.0437]], [[23.0854, -4.2438], [22.8479, -4.1063], [22.4896, -4.0479], [22.3646, -3.9438], [22.1604, -4.0396], [22.0229, -3.9646], [21.9104, -3.9938], [21.7812, -3.9521], [21.7104, -4.0229], [21.4562, -4.0813], [21.2104, -3.9771], [21.0104, -3.9938], [20.8771, -4.1188], [20.6396, -4.1563], [20.5854, -4.2271], [20.4562, -4.2563], [20.4354, -4.2896], [20.4146, -4.2896]], [[21.0729, -6.6146], [20.8437, -6.4938], [20.5771, -6.0229], [20.5854, -5.9271], [20.8187, -5.7438], [20.8562, -5.6063], [20.9187, -5.5896], [20.9104, -5.5188], [21.0854, -5.2938], [21.1062, -5.0063], [21.0271, -4.6521], [20.7062, -4.4979], [20.5479, -4.3229], [20.4937, -4.3479], [20.4146, -4.2896]], [[23.8854, 4.8312], [23.5937, 4.7604], [23.4354, 4.6604], [23.4187, 4.5937], [23.2854, 4.6271], [23.1729, 4.7396], [23.0771, 4.7187], [22.9729, 4.8354], [22.9062, 4.8187], [22.8604, 4.7104], [22.7812, 4.7104], [22.6979, 4.4771], [22.6021, 4.4729], [22.6146, 4.3604], [22.5646, 4.3271], [22.5521, 4.2229], [22.4771, 4.1437], [22.4521, 4.1312], [22.4271, 4.1312]], [[25.2521, 3.5479], [25.2021, 3.4521], [24.9937, 3.3854], [24.9479, 3.4729], [24.5729, 3.4646], [24.3687, 3.5479], [24.1937, 3.7146], [23.7771, 3.7021], [23.7396, 3.7729], [23.5771, 3.8604], [23.4979, 3.8187], [23.4021, 3.8437], [23.3812, 3.8062], [23.1479, 3.8812], [22.7437, 3.8312], [22.5937, 3.9229], [22.5146, 4.0979], [22.4271, 4.1312]], [[25.3979, 1.7271], [25.3771, 1.6104], [25.2562, 1.4771], [24.9146, 1.4812], [24.8896, 1.3729], [24.8021, 1.3062], [24.5021, 1.2646], [24.3937, 1.3396], [24.1937, 1.3396], [24.1604, 1.2812], [24.0687, 1.3271], [23.9896, 1.2771], [23.9396, 1.3021], [23.9021, 1.2437], [23.8062, 1.2979], [23.7187, 1.2437], [23.6271, 1.2396], [23.5979, 1.2229], [23.5646, 1.2229]], [[24.2729, 0.8062], [24.1354, 0.9771], [23.6604, 1.1354], [23.5646, 1.2229]], [[24.1729, 0.4979], [24.2479, 0.5271], [24.2604, 0.6354], [24.1854, 0.6604], [24.2354, 0.6854], [24.2729, 0.8062]], [[26.9146, -5.6563], [27.0229, -5.3063], [26.9729, -5.2604], [26.9979, -5.1604], [26.9562, -5.1188], [26.9229, -4.7938], [26.7687, -4.6229], [26.2812, -4.3521], [25.9729, -4.0479], [26.0437, -3.7271], [25.8771, -3.4188], [25.9479, -3.1188], [25.9479, -2.8313], [25.8229, -2.6854], [25.6979, -2.3479], [25.7062, -2.0729], [25.7937, -1.8104], [25.8104, -1.3688], [25.6437, -1.1396], [25.4021, -0.4979], [25.4271, -0.3813], [25.5646, -0.2104], [25.5187, 0.1896], [25.3312, 0.4146], [25.1896, 0.5062], [25.0354, 0.5646], [24.7646, 0.5771], [24.5271, 0.7521], [24.3521, 0.7479], [24.2729, 0.8062]], [[26.4771, -8.2521], [26.7229, -8.2229], [26.7979, -8.1604], [26.7812, -8.0688], [26.9687, -7.9313], [26.9396, -7.9021], [26.9771, -7.8479], [26.7937, -7.6896], [26.8687, -7.5604], [26.8646, -7.4646], [26.9562, -7.4438], [27.0187, -7.1646], [27.0687, -7.1104], [27.0229, -6.8354], [26.9562, -6.7563]], [[26.9562, -6.7563], [26.9896, -6.3521], [26.9104, -6.2646], [26.9146, -5.6563]], [[30.7021, -5.1396], [30.5979, -5.1979], [30.3396, -5.0813], [30.1812, -5.2396], [30.1687, -5.1896], [30.0104, -5.1646], [29.9646, -5.2104], [29.9229, -5.1688], [29.8062, -5.2146], [29.6021, -5.6229], [29.6104, -5.8396], [29.4771, -5.9771], [28.7354, -5.8646], [28.4104, -5.9479], [28.1687, -5.8729], [27.9812, -5.6688], [27.8229, -5.7354], [27.7229, -5.8771], [27.6437, -5.8646], [27.2312, -6.0188], [27.1396, -5.9688], [26.9146, -5.6563]], [[29.5396, -12.2188], [29.4604, -12.3063], [29.4812, -12.3854], [29.5312, -12.4021], [29.4812, -12.4604], [29.3229, -12.4229], [29.2729, -12.3604], [29.0437, -12.3854], [28.9521, -12.2063], [28.7479, -11.9771], [28.4479, -11.8354], [28.4312, -11.6438], [28.3854, -11.5854], [28.5437, -10.8479], [28.6937, -10.6729], [28.6312, -10.5188], [28.6354, -10.2979], [28.5771, -10.2271], [28.6271, -10.1604], [28.6271, -9.9396], [28.6937, -9.7979], [28.6187, -9.7188], [28.5729, -9.4854], [28.5104, -9.4354], [28.8396, -8.7229], [28.8937, -8.4813], [28.8396, -8.4854], [28.7937, -8.3438], [28.8771, -8.2854], [28.8604, -8.2146], [28.7687, -8.1479], [28.6937, -7.9146], [28.6062, -7.8813], [28.5562, -7.9313], [28.0687, -7.6438], [28.1021, -7.5188], [28.0729, -7.4063], [27.9937, -7.3146], [27.8271, -7.2354], [27.6729, -7.0063], [26.9562, -6.7563]]]}, "properties": {"ord_clas": 1}}, {"type": "Feature", "geometry": {"type": "LineString", "coordinates": [[37.7979, -7.9271], [37.8354, -7.8021], [38.2146, -7.7646], [38.3437, -7.8438], [38.5646, -7.8813], [38.6979, -7.9813], [39.2479, -8.0479], [39.2354, -7.9563], [39.3521, -7.7729]]}, "properties": {"ord_clas": 1}}, {"type": "Feature", "geometry": {"type": "LineString", "coordinates": [[16.0687, -9.7313], [15.8104, -9.7146], [15.7729, -9.7813], [15.3021, -9.8229], [14.9521, -9.6771], [14.9437, -9.7271], [14.5396, -9.7854], [14.4562, -9.7021], [14.2979, -9.6979], [14.2521, -9.6271], [14.1812, -9.6438], [14.1146, -9.5229], [13.9812, -9.5313], [13.7979, -9.3021], [13.5729, -9.1729], [13.3146, -9.1479], [13.1604, -9.3313]]}, "properties": {"ord_clas": 1}}, {"type": "Feature", "geometry": {"type": "LineString", "coordinates": [[38.4812, -11.4229], [38.6354, -11.2896], [38.7437, -11.2813], [38.9104, -11.1688], [39.1312, -11.1438], [39.2604, -11.1771], [39.5312, -10.9771], [39.9896, -10.8271], [40.3979, -10.5104]]}, "properties": {"ord_clas": 1}}, {"type": "Feature", "geometry": {"type": "LineString", "coordinates": [[13.1479, -16.9646], [12.9854, -16.9813], [12.5396, -17.2479], [12.4396, -17.2604], [12.4104, -17.2063], [12.2479, -17.2396], [12.0812, -17.1438], [11.7937, -17.2729], [11.7562, -17.2438]]}, "properties": {"ord_clas": 1}}, {"type": "Feature", "geometry": {"type": "MultiLineString", "coordinates": [[[23.0396, -17.3771], [23.1854, -17.5313], [23.3729, -17.5938], [23.3771, -17.7271], [23.2896, -17.9938], [23.3979, -18.1938], [23.5271, -18.2771], [23.6104, -18.4979], [23.9187, -18.1979], [24.1979, -18.0188], [24.2979, -18.0271], [24.3646, -17.9521], [24.4271, -17.9521], [24.4937, -18.0521], [24.5729, -18.0688], [24.7396, -17.8896], [24.9604, -17.7896], [25.0604, -17.8396], [25.1646, -17.7771], [25.2646, -17.7938]], [[23.1812, -14.1896], [23.2354, -14.3854], [23.0437, -14.7063], [22.9062, -15.2354], [23.0229, -15.4188], [23.1312, -15.4646], [23.1062, -15.5271], [23.1521, -15.6188], [23.1062, -15.6813], [23.2396, -15.8896], [23.2312, -16.0104], [23.2937, -16.0979], [23.2396, -16.2271], [23.2729, -16.3146], [23.5854, -16.6729], [24.0104, -17.0313], [24.2646, -17.4896], [24.3979, -17.4688], [24.5604, -17.5396], [24.6604, -17.4938], [24.9812, -17.5521], [25.0479, -17.5896], [25.1021, -17.7104], [25.2646, -17.7938]], [[25.2646, -17.7938], [25.5146, -17.8646], [25.6979, -17.8104], [25.9187, -17.9979], [26.0896, -17.9813], [26.0937, -17.9313], [26.2229, -17.8854], [26.5604, -17.9854], [26.6937, -18.0771], [26.8312, -17.9938], [27.0396, -17.9604], [27.1562, -17.8438], [27.2021, -17.7104], [27.4562, -17.4729], [27.4979, -17.3188], [27.8979, -16.9688], [28.2312, -16.7646], [28.7354, -16.5771], [28.8521, -16.3729], [28.8479, -16.0438], [28.9187, -15.9438]], [[25.9562, -15.1604], [26.0021, -15.4104], [25.9521, -15.4521], [26.0062, -15.5063], [25.9771, -15.7271], [26.1687, -15.8188], [26.3104, -15.7229], [26.4187, -15.7313], [26.4479, -15.6729], [26.5687, -15.6438], [26.5812, -15.7063], [26.6229, -15.6729], [26.6562, -15.7063], [26.8271, -15.6604], [26.8146, -15.6188], [26.8771, -15.5771], [27.0354, -15.5646], [27.1562, -15.6271], [27.2062, -15.7354], [27.4354, -15.7396], [27.5687, -15.6563], [27.6229, -15.6938], [27.6479, -15.6479], [27.7521, -15.6438], [27.9312, -15.6979], [27.9729, -15.6729], [28.2271, -15.8396], [28.3521, -15.7813], [28.7312, -15.9646], [28.9187, -15.9438]], [[28.9187, -15.9438], [29.0187, -15.9438], [29.2187, -15.7688], [29.4271, -15.6813], [29.8187, -15.6104], [30.1687, -15.6188], [30.2146, -15.6688], [30.2604, -15.6271], [30.3521, -15.6563], [30.4229, -15.6229]], [[30.2104, -14.9021], [30.2146, -15.0771], [30.2771, -15.2563], [30.3854, -15.3729], [30.3687, -15.5563], [30.4229, -15.6229]], [[30.4229, -15.6229], [30.5896, -15.6479], [30.7021, -15.6104], [31.1312, -15.7313], [31.4437, -15.6438], [31.6104, -15.6813], [32.0271, -15.6563], [32.2729, -15.5813], [32.6396, -15.5521], [32.6771, -15.5896], [32.7479, -15.5563], [32.9937, -15.5854], [33.1562, -15.7896], [33.2312, -15.8063], [33.5146, -16.1271], [33.5812, -16.1396], [34.0062, -16.6146], [34.1271, -16.6229], [34.2104, -16.7146], [34.4521, -16.7229], [34.6396, -16.8813], [34.8062, -16.9396], [35.1771, -17.6563], [35.2354, -17.6896], [35.2604, -17.6813], [35.2937, -17.6979], [35.3229, -17.6938]], [[34.5646, -13.1229], [34.7854, -13.7729], [35.1062, -14.1229], [35.2771, -14.4813], [35.2729, -14.9688], [35.1521, -15.2271], [35.0604, -15.3188], [34.9229, -15.3646], [34.7521, -15.5813], [34.7646, -15.6604], [34.7229, -15.7063], [34.7979, -16.0271], [34.9604, -16.2438], [34.9271, -16.3563], [35.0937, -16.4646], [35.1646, -16.6146], [35.2812, -16.7146], [35.3229, -17.6938]], [[35.3229, -17.6938], [35.5396, -18.0021], [35.8187, -18.1063], [35.8854, -18.2479], [36.0812, -18.3771], [36.1354, -18.5104], [36.2479, -18.5854], [36.2104, -18.6813], [36.2562, -18.8021]]]}, "properties": {"ord_clas": 1}}, {"type": "Feature", "geometry": {"type": "LineString", "coordinates": [[16.0354, -18.6813], [16.0354, -18.7479], [16.1896, -18.8521]]}, "properties": {"ord_clas": 1}}, {"type": "Feature", "geometry": {"type": "MultiLineString", "coordinates": [[[19.4604, -17.8646], [19.6729, -17.8521], [19.7562, -17.9104], [19.8062, -17.8688], [20.1229, -17.9063], [20.3271, -17.8604], [20.5229, -17.9729], [20.8229, -18.0396], [20.9562, -17.9646], [21.2187, -17.9313], [21.5729, -18.1229], [21.6562, -18.1021], [21.8854, -18.4146], [22.0771, -18.4688], [22.1187, -18.6438], [22.2687, -18.8063], [22.5021, -18.9021], [22.5604, -19.1104], [22.7021, -19.2854], [23.0396, -19.5354], [23.1896, -19.5521], [23.2521, -19.7979], [23.3687, -19.8146], [23.5146, -19.9229], [23.3396, -20.0896], [23.3729, -20.1396]], [[22.4146, -20.4146], [22.4562, -20.4938], [22.6312, -20.5521], [23.0021, -20.3313], [23.1312, -20.3146], [23.3104, -20.1354], [23.3729, -20.1396]], [[23.3729, -20.1396], [23.5312, -20.1104], [23.7146, -20.2021], [23.7562, -20.1771], [23.8771, -20.3188], [23.9354, -20.3271], [24.1521, -20.1979], [24.2312, -20.2563], [24.2604, -20.2229], [24.2812, -20.3104], [24.3854, -20.3938], [24.5104, -20.3896], [24.5104, -20.4979], [24.3979, -20.6813], [24.3646, -20.9896], [24.4437, -21.0771], [24.6396, -21.1146], [24.7437, -21.2021], [24.8479, -21.1938]], [[24.0604, -22.2021], [24.0521, -22.0854], [23.9312, -21.9396], [23.9271, -21.8479], [23.9896, -21.7521], [24.1271, -21.6771], [24.1479, -21.5813], [24.2354, -21.5729], [24.2979, -21.4479], [24.2771, -21.3896], [24.3729, -21.3938], [24.4312, -21.3188], [24.5979, -21.2438], [24.6521, -21.3104], [24.7646, -21.3104], [24.8479, -21.1938]], [[24.8479, -21.1938], [25.0229, -21.0354], [25.0312, -20.9688], [25.2646, -21.0271], [25.4021, -20.9729], [25.4146, -20.9021], [25.4979, -20.8563], [25.6354, -20.9396], [25.9521, -20.9396]]]}, "properties": {"ord_clas": 1}}, {"type": "Feature", "geometry": {"type": "LineString", "coordinates": [[34.4312, -21.2188], [34.6521, -21.0938], [34.7479, -21.1271], [35.0604, -20.9313]]}, "properties": {"ord_clas": 1}}, {"type": "Feature", "geometry": {"type": "LineString", "coordinates": [[27.9271, -23.0563], [27.9396, -22.9646], [28.0479, -22.9021], [28.0437, -22.8354], [28.2896, -22.6104], [28.3604, -22.5688], [28.5187, -22.5896], [28.9187, -22.4604], [29.0396, -22.2146], [29.2146, -22.1771], [29.3354, -22.2021], [29.7729, -22.1396], [30.1229, -22.3104], [30.2312, -22.2938], [30.2896, -22.3563], [30.8687, -22.2938], [31.1812, -22.3313], [31.3354, -22.4313], [31.5604, -22.4563], [31.7146, -22.6188], [31.8021, -22.6313], [31.9604, -22.8688], [32.0271, -22.8938], [32.0104, -22.9479], [32.2479, -23.1229], [32.2437, -23.2563], [32.4562, -23.4896], [32.4979, -23.7479], [32.5979, -23.8729], [32.5729, -23.9771], [32.6187, -24.0896], [32.7521, -24.2021], [32.8854, -24.4396], [32.9562, -24.4438], [33.1479, -24.6229], [33.2687, -24.6146], [33.2729, -24.6896], [33.3396, -24.6688], [33.4729, -24.7854], [33.5396, -24.7813], [33.5229, -24.7271], [33.5979, -24.7688], [33.6646, -25.0354], [33.6104, -25.0229], [33.5062, -25.1104], [33.5146, -25.1729]]}, "properties": {"ord_clas": 1}}, {"type": "Feature", "geometry": {"type": "MultiLineString", "coordinates": [[[20.2021, -28.5146], [19.9687, -28.4271], [19.8104, -28.5104], [19.7312, -28.4854], [19.5687, -28.5271], [19.4646, -28.7104], [19.2646, -28.7479], [19.2437, -28.8229], [19.2979, -28.8938], [19.1479, -28.9646], [19.0104, -28.9313], [18.9396, -28.8604], [18.7437, -28.8354], [18.1854, -28.9146], [18.0479, -28.8771], [17.9146, -28.7646], [17.6354, -28.7729], [17.5687, -28.6854], [17.4187, -28.7229], [17.4312, -28.5771], [17.3354, -28.4854], [17.4146, -28.3813], [17.3771, -28.2854], [17.3354, -28.2271], [17.2187, -28.2521], [17.1937, -28.1104], [17.0729, -28.0354], [16.8896, -28.0854], [16.8854, -28.1729], [16.8354, -28.1646], [16.8562, -28.2104], [16.8021, -28.2229], [16.8271, -28.2688], [16.7562, -28.2729], [16.8104, -28.3604], [16.7312, -28.4979], [16.6812, -28.4688], [16.4521, -28.6313]], [[20.6896, -26.9063], [20.5896, -27.0271], [20.5021, -27.0479], [20.4604, -27.2063], [20.2937, -27.3271], [20.3146, -27.5604], [20.4854, -27.7229], [20.4812, -27.9271], [20.5812, -28.0854], [20.5479, -28.1396], [20.5937, -28.2646], [20.4646, -28.4604], [20.3146, -28.4563], [20.2646, -28.4729], [20.2146, -28.5146], [20.2021, -28.5146]], [[25.6229, -27.6646], [25.2729, -27.7979], [25.2396, -27.8729], [25.1312, -27.9271], [25.0687, -28.0688], [24.7771, -28.1354], [24.6937, -28.2854], [24.7396, -28.3604], [24.6812, -28.4771], [24.7146, -28.5063], [24.6146, -28.4896], [24.6062, -28.6021], [24.5687, -28.6021], [24.5604, -28.5396], [24.4437, -28.5938], [24.3854, -28.5271], [24.4062, -28.4771], [24.2771, -28.4021], [24.2354, -28.4396], [24.2687, -28.4604], [24.0604, -28.6688], [24.0437, -28.8229], [23.9562, -28.8896], [23.9812, -28.9646], [23.8937, -28.9521], [23.8854, -29.0271], [23.8146, -29.0563], [23.6521, -29.0521], [23.4812, -29.2438], [23.3646, -29.1938], [23.3437, -29.2688], [23.1187, -29.3521], [23.1146, -29.4229], [23.0146, -29.4146], [22.9979, -29.5313], [22.9396, -29.5063], [22.8979, -29.5854], [22.8437, -29.5354], [22.8729, -29.6646], [22.8187, -29.6813], [22.7187, -29.6396], [22.5937, -29.4271], [22.4104, -29.4104], [22.3479, -29.3146], [22.2687, -29.3187], [22.2646, -29.1354], [22.1479, -28.9188], [22.0771, -28.8438], [21.9979, -28.8896], [21.9604, -28.8229], [21.8812, -28.8271], [21.7729, -28.6438], [21.7771, -28.5396], [21.6854, -28.4313], [21.5521, -28.3854], [21.4687, -28.3854], [21.4229, -28.4396], [21.3271, -28.4229], [21.1979, -28.4813], [21.1729, -28.5813], [21.0187, -28.7229], [20.7937, -28.7729], [20.5521, -28.7521], [20.2021, -28.5146]], [[20.6271, -26.4354], [20.6146, -26.7063], [20.6896, -26.9063]], [[22.1854, -26.4354], [22.0479, -26.6354], [21.7937, -26.6688], [21.7854, -26.7979], [21.6979, -26.8604], [21.3354, -26.8229], [21.1271, -26.8729], [20.8812, -26.7979], [20.6896, -26.9063]]]}, "properties": {"ord_clas": 1}}, {"type": "Feature", "geometry": {"type": "MultiLineString", "coordinates": [[[37.9979, 36.9646], [38.0812, 36.6771], [38.1812, 36.6562], [38.2729, 36.5521], [38.2396, 36.5146], [38.2687, 36.4521], [38.1812, 36.3812], [38.2021, 36.2812], [38.0646, 36.1396], [38.1729, 35.9854], [38.5604, 35.8562], [38.7437, 35.8562], [38.8271, 35.9354], [39.0437, 35.9354], [39.2896, 35.8271], [39.7896, 35.7521], [39.8187, 35.6354], [39.9187, 35.5187], [40.0437, 35.4771], [40.1146, 35.3604], [40.4104, 35.2021], [40.4271, 35.0729], [40.4771, 35.0604], [40.4396, 35.0354], [40.5646, 34.9562], [40.6479, 34.7896], [40.7812, 34.7021], [40.8062, 34.7312], [40.8104, 34.6562], [40.9187, 34.6271], [40.9354, 34.4479], [41.1271, 34.3646], [41.2146, 34.3896], [41.1771, 34.4271], [41.2354, 34.4562], [41.2646, 34.4229], [41.3062, 34.4604], [41.4271, 34.4271], [41.4271, 34.4771], [41.4729, 34.4229], [41.5896, 34.4396], [41.5979, 34.4812], [41.7021, 34.4479], [41.7812, 34.5312], [41.8396, 34.4687], [41.9687, 34.4771], [42.1437, 34.2729], [42.3646, 34.3396], [42.3854, 34.2854], [42.3229, 34.2354], [42.3854, 34.1854], [42.4104, 34.0187], [42.5062, 34.0354], [42.5687, 33.9729], [42.5354, 33.8604], [42.5937, 33.8479], [42.6312, 33.9021], [42.7604, 33.8604], [42.7229, 33.7187], [42.9312, 33.5271], [43.0312, 33.5312], [43.0646, 33.4854], [43.1187, 33.5271], [43.2604, 33.4396], [43.3521, 33.4729], [43.4937, 33.3979], [43.6562, 33.3979], [43.7562, 33.3562], [43.8562, 33.1854], [43.8937, 33.1771], [43.8896, 33.2146], [43.9604, 33.1521], [44.0187, 33.1646], [44.1729, 33.0187], [44.2062, 32.8812], [44.2896, 32.7937], [44.2062, 32.5646], [44.3021, 32.4396], [44.3646, 32.2479], [44.3562, 32.1104], [44.4937, 31.9187], [44.5187, 31.7562], [44.4812, 31.6979], [44.7896, 31.4521], [44.8187, 31.4854], [44.9521, 31.4187], [45.1354, 31.4271], [45.2521, 31.3271], [45.5312, 31.2854], [45.5604, 31.1854], [45.6104, 31.2104], [45.9479, 31.1062], [46.0562, 31.1229], [46.1646, 31.0396], [46.2937, 31.0312], [46.5021, 30.8729], [46.7896, 30.9604], [47.3104, 30.9312], [47.4437, 31.0062]], [[43.4271, 35.2437], [43.3854, 35.2104], [43.5771, 35.0312], [43.5104, 34.9479], [43.5354, 34.8646], [43.6687, 34.7271], [43.8854, 34.1312], [44.0396, 34.0604], [44.1729, 34.0687], [44.2271, 33.9979], [44.2562, 34.0437], [44.2854, 34.0021], [44.3646, 34.0146], [44.4521, 33.9354], [44.3854, 33.7812], [44.4396, 33.7062], [44.3937, 33.6104], [44.3437, 33.6229], [44.2979, 33.4729], [44.4146, 33.3146], [44.3687, 33.2687], [44.4479, 33.2896], [44.5021, 33.2229], [44.4854, 33.1729], [44.5687, 33.1396], [44.5729, 33.0354], [44.6187, 33.0812], [44.6646, 32.9979], [44.7437, 33.0229], [44.7104, 32.9646], [44.8396, 32.9771], [44.8396, 32.9312], [45.0021, 32.8562], [45.0687, 32.9021], [45.0312, 32.8437], [45.0979, 32.7729], [45.2937, 32.7437], [45.2562, 32.6771], [45.3812, 32.6521], [45.4187, 32.5562], [45.5312, 32.5854], [45.5229, 32.5229], [45.5979, 32.5687], [45.6271, 32.5187], [45.6604, 32.5604], [45.7312, 32.4979], [45.7771, 32.5312], [45.8437, 32.4896], [45.8396, 32.5271], [45.9187, 32.5229], [45.9687, 32.6062], [46.1437, 32.6562], [46.2521, 32.5521], [46.7104, 32.4646], [46.7604, 32.3562], [46.7021, 32.3146], [46.7312, 32.1146], [46.8729, 32.0729], [46.9521, 31.8729], [47.0937, 31.8937], [47.1479, 31.8521], [47.1896, 31.6229], [47.3771, 31.4812], [47.3812, 31.4104], [47.4521, 31.3521], [47.4104, 31.3187], [47.4437, 31.0062]], [[47.4437, 31.0062], [47.6104, 30.7771], [47.7479, 30.7271], [47.7729, 30.5812], [47.8646, 30.4979], [48.1271, 30.4479], [48.2021, 30.3187], [48.2729, 30.3354], [48.4146, 30.1937], [48.3812, 30.1187], [48.4604, 29.9937]]]}, "properties": {"ord_clas": 1}}, {"type": "Feature", "geometry": {"type": "LineString", "coordinates": [[37.8562, 25.6521], [37.7521, 25.6104], [37.5479, 25.6687], [37.3312, 25.8396], [37.1937, 25.8104], [36.9771, 25.9062], [36.6812, 25.8937]]}, "properties": {"ord_clas": 1}}, {"type": "Feature", "geometry": {"type": "LineString", "coordinates": [[45.3521, 20.4687], [45.5937, 20.4229], [45.7562, 20.3187], [46.4437, 20.3729], [46.5854, 20.4146], [46.7729, 20.7479], [46.8937, 20.7646], [47.0937, 20.8854], [47.2521, 20.8187], [47.4646, 20.8937], [48.0729, 21.4854], [48.2687, 21.5937], [48.3521, 21.7312], [48.6187, 21.9229], [48.7229, 21.9271], [48.8896, 22.1396], [48.9896, 22.1729], [49.0479, 22.2687], [49.2271, 22.3812], [49.3854, 22.6354], [49.3479, 22.8562], [49.4021, 23.0646], [49.2687, 23.2521]]}, "properties": {"ord_clas": 1}}, {"type": "Feature", "geometry": {"type": "LineString", "coordinates": [[17.8146, 16.9729], [17.8812, 16.9729]]}, "properties": {"ord_clas": 2}}, {"type": "Feature", "geometry": {"type": "LineString", "coordinates": [[11.9146, 12.9604], [12.1854, 13.1229], [12.4771, 13.0604], [12.6312, 13.3062], [12.6729, 13.2771], [12.9312, 13.5021], [13.2021, 13.5271], [13.2771, 13.6521], [13.3854, 13.7229], [13.4479, 13.6812], [13.5146, 13.3937], [13.7146, 13.2187], [13.9646, 13.1646], [14.0437, 13.0979], [14.3479, 13.1354], [14.5271, 13.0771]]}, "properties": {"ord_clas": 2}}]}